KUIPER-00061            
1 64521U 25134X   25361.24161234 -.00008247  00000+0 -10927-2 0  9996
2 64521  51.9000 188.4296 0004717  54.0803 306.0596 14.78421069 29408
KUIPER-00062            
1 64522U 25134Y   25360.74788554  .00002987  00000+0  37295-3 0  9992
2 64522  51.8966 195.0900 0007529  56.4776 303.6907 14.85073582 29280
KUIPER-00063            
1 64523U 25134Z   25361.33335648  .00007996  00000+0  10802-2 0  9990
2 64523  51.9004 198.0430 0000648 167.6323   8.5895 14.79790765  4613
KUIPER-00064            
1 64524U 25134AA  25360.76285101  .00002684  00000+0  38140-3 0  9990
2 64524  51.9005 197.9865 0008107 109.5799 250.6039 14.79887586 29249
KUIPER-00065            
1 64525U 25134AB  25360.29263836  .00003106  00000+0  41804-3 0  9991
2 64525  51.9014 205.2977 0011739  40.3858 319.7975 14.81757245 29089
KUIPER-00066            
1 64526U 25134AC  25361.15843075  .00017069  00000+0  76722-3 0  9997
2 64526  51.8913 166.6811 0000375 285.7428  74.3511 15.21225482 29714
KUIPER-00069            
1 64816U 25151A   25361.11955492  .00015408  00000+0  20527-2 0  9997
2 64816  51.9012 241.5190 0005127  51.2861 308.8559 14.79779313 26013
KUIPER-00070            
1 64817U 25151B   25361.19374055  .00004748  00000+0  65100-3 0  9998
2 64817  51.8993 266.1403 0010955  19.4246 340.7131 14.79941799 25681
